$$SOE
2460154.500000000, A.D. 2023-Jul-29 00:00:00.0000, -2.855580818991522E+08, 1.398091496679486E+08, 1.372198166923092E+07,
2460161.500000000, A.D. 2023-Aug-05 00:00:00.0000, -2.914458757812709E+08, 1.286270011256749E+08, 1.324062270188798E+07,
2460168.500000000, A.D. 2023-Aug-12 00:00:00.0000, -2.968972930449846E+08, 1.172522108012165E+08, 1.273943695114749E+07,
2460175.500000000, A.D. 2023-Aug-19 00:00:00.0000, -3.019067667615937E+08, 1.057028335789463E+08, 1.221928633342255E+07,
2460182.500000000, A.D. 2023-Aug-26 00:00:00.0000, -3.064695466294753E+08, 9.399700731703687E+07, 1.168105479134742E+07,
2460189.500000000, A.D. 2023-Sep-02 00:00:00.0000, -3.105816910072086E+08, 8.215291175090393E+07, 1.112564588933120E+07,
2460196.500000000, A.D. 2023-Sep-09 00:00:00.0000, -3.142400566697541E+08, 7.018872868084876E+07, 1.055398042512797E+07,
2460203.500000000, A.D. 2023-Sep-16 00:00:00.0000, -3.174422862857983E+08, 5.812260350976697E+07, 9.966994047613118E+06,
2460210.500000000, A.D. 2023-Sep-23 00:00:00.0000, -3.201867933706241E+08, 4.597260852317315E+07, 9.365634875523450E+06,
2460217.500000000, A.D. 2023-Sep-30 00:00:00.0000, -3.224727452269427E+08, 3.375670918881862E+07, 8.750861254211297E+06,
2460224.500000000, A.D. 2023-Oct-07 00:00:00.0000, -3.243000464036390E+08, 2.149273300051319E+07, 8.123639829454163E+06,
2460231.500000000, A.D. 2023-Oct-14 00:00:00.0000, -3.256693218135509E+08, 9.198337605382282E+06, 7.484943578692454E+06,
2460238.500000000, A.D. 2023-Oct-21 00:00:00.0000, -3.265818964555979E+08, -3.109020141484147E+06, 6.835749640655925E+06,
2460245.500000000, A.D. 2023-Oct-28 00:00:00.0000, -3.270397733254430E+08, -1.541211191241664E+07, 6.177037264221476E+06,
2460252.500000000, A.D. 2023-Nov-04 00:00:00.0000, -3.270456109249933E+08, -2.769396320167185E+07, 5.509785932130544E+06,
2460259.500000000, A.D. 2023-Nov-11 00:00:00.0000, -3.266027003562116E+08, -3.993787678808548E+07, 4.834973597111998E+06,
2460266.500000000, A.D. 2023-Nov-18 00:00:00.0000, -3.257149419340333E+08, -5.212745444724184E+07, 4.153575007473988E+06,
2460273.500000000, A.D. 2023-Nov-25 00:00:00.0000, -3.243868213885419E+08, -6.424661691907818E+07, 3.466560119155124E+06,
2460280.500000000, A.D. 2023-Dec-02 00:00:00.0000, -3.226233857625132E+08, -7.627962218183134E+07, 2.774892591717713E+06,
2460287.500000000, A.D. 2023-Dec-09 00:00:00.0000, -3.204302190530131E+08, -8.821108214014916E+07, 2.079528356503896E+06,
2460294.500000000, A.D. 2023-Dec-16 00:00:00.0000, -3.178134174279828E+08, -1.000259777711468E+08, 1.381414231059074E+06,
2460301.500000000, A.D. 2023-Dec-23 00:00:00.0000, -3.147795637791427E+08, -1.117096721030215E+08, 6.814866028515249E+05,
2460308.500000000, A.D. 2023-Dec-30 00:00:00.0000, -3.113357030516190E+08, -1.232479200432668E+08, -1.932961081945151E+04,
2460315.500000000, A.D. 2024-Jan-06 00:00:00.0000, -3.074893202144486E+08, -1.346268774871848E+08, -7.201217594622970E+05,
2460322.500000000, A.D. 2024-Jan-13 00:00:00.0000, -3.032483177833205E+08, -1.458331115845070E+08, -1.419990453793280E+06,
2460329.500000000, A.D. 2024-Jan-20 00:00:00.0000, -2.986209917410243E+08, -1.568536091479775E+08, -2.118050619976841E+06,
2460336.500000000, A.D. 2024-Jan-27 00:00:00.0000, -2.936160079345859E+08, -1.676757826235550E+08, -2.813432376117162E+06,
2460343.500000000, A.D. 2024-Feb-03 00:00:00.0000, -2.882423794202024E+08, -1.782874746543912E+08, -3.505281772247881E+06,
2460350.500000000, A.D. 2024-Feb-10 00:00:00.0000, -2.825094445266049E+08, -1.886769616211289E+08, -4.192761447561815E+06,
2460357.500000000, A.D. 2024-Feb-17 00:00:00.0000, -2.764268455497144E+08, -1.988329562377103E+08, -4.875051221740916E+06,
2460364.500000000, A.D. 2024-Feb-24 00:00:00.0000, -2.700045080867258E+08, -2.087446092656261E+08, -5.551348626624241E+06,
2460371.500000000, A.D. 2024-Mar-02 00:00:00.0000, -2.632526210113540E+08, -2.184015104511821E+08, -6.220869387139618E+06,
2460378.500000000, A.D. 2024-Mar-09 00:00:00.0000, -2.561816169714499E+08, -2.277936888191256E+08, -6.882847872743994E+06,
2460385.500000000, A.D. 2024-Mar-16 00:00:00.0000, -2.488021530262235E+08, -2.369116121952938E+08, -7.536537542867169E+06,
2460392.500000000, A.D. 2024-Mar-23 00:00:00.0000, -2.411250915336098E+08, -2.457461849175516E+08, -8.181211289595127E+06,
2460399.500000000, A.D. 2024-Mar-30 00:00:00.0000, -2.331614835304554E+08, -2.542887438278978E+08, -8.816161477664098E+06,
2460406.500000000, A.D. 2024-Apr-06 00:00:00.0000, -2.249225543476518E+08, -2.625310559792991E+08, -9.440699984199435E+06,
2460413.500000000, A.D. 2024-Apr-13 00:00:00.0000, -2.164196879071962E+08, -2.704653172862575E+08, -1.005415849935223E+07,
2460420.500000000, A.D. 2024-Apr-20 00:00:00.0000, -2.076644106493745E+08, -2.780841495025549E+08, -1.065588878510961E+07,
2460427.500000000, A.D. 2024-Apr-27 00:00:00.0000, -1.986683765985452E+08, -2.853805961413862E+08, -1.124526280201517E+07,
2460434.500000000, A.D. 2024-May-04 00:00:00.0000, -1.894433534666852E+08, -2.923481180905207E+08, -1.182167277226906E+07,
2460441.500000000, A.D. 2024-May-11 00:00:00.0000, -1.800012095399849E+08, -2.989805890709391E+08, -1.238453121240383E+07,
2460448.500000000, A.D. 2024-May-18 00:00:00.0000, -1.703539012486334E+08, -3.052722909620760E+08, -1.293327094420654E+07,
2460455.500000000, A.D. 2024-May-25 00:00:00.0000, -1.605134613760724E+08, -3.112179090420321E+08, -1.346734508913499E+07,
2460462.500000000, A.D. 2024-Jun-01 00:00:00.0000, -1.504919878260518E+08, -3.168125272374595E+08, -1.398622705825844E+07,
2460469.500000000, A.D. 2024-Jun-08 00:00:00.0000, -1.403016326762239E+08, -3.220516234414605E+08, -1.448941056386024E+07,
2460476.500000000, A.D. 2024-Jun-15 00:00:00.0000, -1.299545910927287E+08, -3.269310643895029E+08, -1.497640964658904E+07,
2460483.500000000, A.D. 2024-Jun-22 00:00:00.0000, -1.194630910855718E+08, -3.314470989518999E+08, -1.544675853189674E+07,
2460490.500000000, A.D. 2024-Jun-29 00:00:00.0000, -1.088393862012666E+08, -3.355963516943349E+08, -1.590001127214678E+07,
2460497.500000000, A.D. 2024-Jul-06 00:00:00.0000, -9.809574848302588E+07, -3.393758192070390E+08, -1.633574162137844E+07,
2460504.500000000, A.D. 2024-Jul-13 00:00:00.0000, -8.724445972635835E+07, -3.427828664066939E+08, -1.675354309300715E+07,
2460511.500000000, A.D. 2024-Jul-20 00:00:00.0000, -7.629780299301386E+07, -3.458152216855569E+08, -1.715302892625523E+07,
2460518.500000000, A.D. 2024-Jul-27 00:00:00.0000, -6.526805501512100E+07, -3.484709718857637E+08, -1.753383198104973E+07,
2460525.500000000, A.D. 2024-Aug-03 00:00:00.0000, -5.416747919133262E+07, -3.507485574890254E+08, -1.789560461841682E+07,
2460532.500000000, A.D. 2024-Aug-10 00:00:00.0000, -4.300831898272695E+07, -3.526467680388209E+08, -1.823801858331665E+07,
2460539.500000000, A.D. 2024-Aug-17 00:00:00.0000, -3.180279163329703E+07, -3.541647377851101E+08, -1.856076489402466E+07,
2460546.500000000, A.D. 2024-Aug-24 00:00:00.0000, -2.056308215941566E+07, -3.553019415863062E+08, -1.886355374408209E+07,
2460553.500000000, A.D. 2024-Aug-31 00:00:00.0000, -9.301337466401724E+06, -3.560581911423540E+08, -1.914611443394525E+07,
2460560.500000000, A.D. 2024-Sep-07 00:00:00.0000, 1.970339798400503E+06, -3.564336314431924E+08, -1.940819535684735E+07,
2460567.500000000, A.D. 2024-Sep-14 00:00:00.0000, 1.323989776585587E+07, -3.564287364454824E+08, -1.964956396651110E+07,
2460574.500000000, A.D. 2024-Sep-21 00:00:00.0000, 2.449534023362612E+07, -3.560443035713388E+08, -1.987000650798252E+07,
2460581.500000000, A.D. 2024-Sep-28 00:00:00.0000, 3.572472945910341E+07, -3.552814502601935E+08, -2.006932773158409E+07,
2460588.500000000, A.D. 2024-Oct-05 00:00:00.0000, 4.691619054908308E+07, -3.541416125751349E+08, -2.024735092719863E+07,
2460595.500000000, A.D. 2024-Oct-12 00:00:00.0000, 5.805791710605483E+07, -3.526265428846660E+08, -2.040391800247380E+07,
2460602.500000000, A.D. 2024-Oct-19 00:00:00.0000, 6.913817640106243E+07, -3.507383068859621E+08, -2.053888946623093E+07,
2460609.500000000, A.D. 2024-Oct-26 00:00:00.0000, 8.014531406575797E+07, -3.484792807637762E+08, -2.065214437961316E+07,
2460616.500000000, A.D. 2024-Nov-02 00:00:00.0000, 9.106775858929430E+07, -3.458521486298105E+08, -2.074358031144775E+07,
2460623.500000000, A.D. 2024-Nov-09 00:00:00.0000, 1.018940257436653E+08, -3.428599002232827E+08, -2.081311330621311E+07,
2460630.500000000, A.D. 2024-Nov-16 00:00:00.0000, 1.126127229863604E+08, -3.395058288745956E+08, -2.086067786802074E+07,
2460637.500000000, A.D. 2024-Nov-23 00:00:00.0000, 1.232125539077890E+08, -3.357935297813721E+08, -2.088622696955009E+07,
2460644.500000000, A.D. 2024-Nov-30 00:00:00.0000, 1.336823229518525E+08, -3.317268986364830E+08, -2.088973210858406E+07,
2460651.500000000, A.D. 2024-Dec-07 00:00:00.0000, 1.440109408486728E+08, -3.273101301828369E+08, -2.087118341595428E+07,
2460658.500000000, A.D. 2024-Dec-14 00:00:00.0000, 1.541874300895895E+08, -3.225477154640360E+08, -2.083058965127747E+07,
2460665.500000000, A.D. 2024-Dec-21 00:00:00.0000, 1.642009281439776E+08, -3.174444390010487E+08, -2.076797797476105E+07,
2460672.500000000, A.D. 2024-Dec-28 00:00:00.0000, 1.740406904095166E+08, -3.120053788485535E+08, -2.068339391813509E+07,
2460679.500000000, A.D. 2025-Jan-04 00:00:00.0000, 1.836960955143336E+08, -3.062359071427208E+08, -2.057690159848154E+07,
2460686.500000000, A.D. 2025-Jan-11 00:00:00.0000, 1.931566511705282E+08, -3.001416894704975E+08, -2.044858387191728E+07,
2460693.500000000, A.D. 2025-Jan-18 00:00:00.0000, 2.024119996814663E+08, -2.937286839678112E+08, -2.029854241760175E+07,
2460700.500000000, A.D. 2025-Jan-25 00:00:00.0000, 2.114519233650693E+08, -2.870031406081503E+08, -2.012689781258187E+07,
2460707.500000000, A.D. 2025-Feb-01 00:00:00.0000, 2.202663501009835E+08, -2.799716006975455E+08, -1.993378961664483E+07,
2460714.500000000, A.D. 2025-Feb-08 00:00:00.0000, 2.288453590775455E+08, -2.726408965412416E+08, -1.971937647019759E+07,
$$EOE